#dP2021  9 13  0  0  0.00000000      96 __u+U ITR00 FIT  IAC
## 2175  86400.00000000   900.00000000 59470 0.0000000000000
+  126   C01C02C03C04C05C06C07C08C09C10C11C12C13C14C16C19C20
+        C21C22C23C24C25C26C27C28C29C30C32C33C34C35C36C37C38
+        C39C40C41C42C43C44C45C46C60E01E02E03E04E05E07E08E09
+        E11E12E13E14E15E18E19E21E24E25E26E27E30E31E33E36G01
+        G02G03G04G05G06G07G08G09G10G12G13G14G15G16G17G18G19
+        G20G21G22G23G24G25G26G27G28G29G30G31G32J01J02J03J07
+        R01R02R03R04R05R06R07R08R09R10R11R12R13R14R15R16R17
+        R18R19R20R21R22R23R24  0  0  0  0  0  0  0  0  0  0
++        13 12 13 13  0  9  9  9  9  9  8  8  9  8  9  7  7
++         7  7  7  7  7  7  7  7  7  7  7  7  7  7  8  7  8
++         8  8  7  7  7  7  8  7 13  4  5  4  4  4  5  4  4
++         5  4  4  4  4  4  4  5  4  5  4  5  4  4  4  6  4
++         4  3  3  4  3  4  4  4  4  3  4  4  4  4  4  4  4
++         4  4  4  4  4  3  4  4  5  4  4  3  4  9  8  8 14
++         7  6  6  6  6 13  6  6  6 13  7  6  7  6  6  7  6
++         6  7  7  5  7 13  6  0  0  0  0  0  0  0  0  0  0
%c M  cc GPS ccc cccc cccc cccc cccc ccccc ccccc ccccc ccccc
%c cc cc ccc ccc cccc cccc cccc cccc ccccc ccccc ccccc ccccc
%f  0.0000000  0.000000000  0.00000000000  0.000000000000000
%f  0.0000000  0.000000000  0.00000000000  0.000000000000000
%i    0    0    0    0      0      0      0      0         0
%i    0    0    0    0      0      0      0      0         0
/* INFORMATION & ANALYSIS CENTER (IAC)            RAPID DATA
/* S/V CLOCKS ARE ALIGNED TO GNSS TIME                      
/* G:C1WC2W R:C1PC2P E:C1XC5X C:C2IC6I J:C1CC2S             
/* PCV:IGS14_2163 OL/AL:FES2004  NONE     YN ORB:CoN CLK:CoN
*  2021 09 13  6 45  0.00000000
PC01 -34328.350975  24443.393614    -73.157662    -77.300114
PC02   4439.023537  41959.052089    961.981269    339.532721
PC03 -14772.871312  39497.377957    983.801277   -188.758675
PC04 -39617.349573  14393.915393   -205.140487    188.431214
PC05      0.000000      0.000000      0.000000 999999.999999
PC06  -5862.458866  39831.900305  12811.923128    890.880946
PC07  -8117.889592  25449.856765 -32606.178585    -96.991541
PC08 -19142.022170  30262.957843  22129.818183   -943.029388
PC09   -747.287810  42275.288412   3557.325047   -102.238079
PC10   -144.052913  27350.215262 -31763.143034     -0.540960
PC11  10501.189803  20713.463866  15496.303222    572.239744
PC12      7.806574  27862.780527  -1177.398133    759.255288
PC13 -10721.920699  30258.927772  27271.815742    407.370610
PC14  20674.426661  16927.494121   7965.349875    650.077132
PC16  -7156.772346  38711.013996  15527.052439   -811.686939
PC19 -25226.813607 -11857.884699   1523.596625    962.940111
PC20 -14477.839694 -18858.443094 -14627.671024   -803.356589
PC21  -5639.293530  14909.593255  22912.945743   -933.043823
PC22 -21757.109871   2198.239175  17345.653743   -951.638597
PC23  24944.537294 -11529.024728  -4852.761721   -961.990564
PC24   2760.176189  16908.907204 -22021.300383   -965.716813
PC25  20374.705152   2699.995721 -18886.766196   -855.662748
PC26 -14214.093724  20335.466995 -12742.780716    850.779049
PC27   6151.470226 -25346.119109   9891.448614    596.527384
PC28  14714.343274  -9611.040452  21680.170491    -27.088429
PC29 -15062.897655 -11197.973556 -20660.431052    446.463418
PC30  -6599.348406 -26171.986764  -7064.141905    480.463789
PC32   5559.906943 -14943.598586 -22895.243247   -944.602967
PC33  25250.196886  11777.731346  -1412.981003   -969.334624
PC34   7037.089554  25859.404489   7798.487928   -583.209417
PC35 -14551.236793   9683.167841 -21767.019189    -94.572818
PC36 -20031.028276  -3548.070311  19134.688484   -758.341104
PC37  15515.745617 -19896.092279  11969.456616   -864.802650
PC38 -23946.280748  31202.253985  14938.456429    175.131733
PC39  -9238.843182  35212.943070  21390.587951     33.200245
PC40 -11946.905379  19220.677603 -35574.372738    198.982079
PC41  21960.944477  -1997.955574 -17062.596445   -938.739143
PC42  13642.546484  18963.879095  15288.756593   -952.650554
PC43  14971.763394  11891.047163  20323.985607   -912.125250
PC44  -5484.964234  25461.490077 -10064.261081    388.664578
PC45 -24887.734340  11679.643283   4737.154198    546.341694
PC46  -3890.500229 -16271.989238  22352.954156     87.578481
PC60   7283.402280  41515.123427   -406.540004     -0.827484
PE01  24561.657003 -10454.701453  12803.768635   -473.545645
PE02 -24463.010838  10517.199717 -12905.752906    246.487765
PE03 -13227.989152  10871.519345  24139.493277   -474.082447
PE04  -2731.680676 -24498.938717 -16386.654127   -855.622805
PE05 -21682.101970  -9363.367951  17843.998811   -249.750736
PE07  17405.001476  23903.388323  -1229.319207   -585.025262
PE08   3233.672732  24559.921121  16189.821707   5938.509440
PE09 -17612.702576 -23758.738524   1423.019980   5533.409940
PE11  -7105.773406 -18542.976842 -21962.333202   5435.038309
PE12   8096.630650 -27641.312948  -6817.402641   5012.245397
PE13   6739.815962  18892.882819  21764.212431    421.429600
PE14 -21669.488707   -706.069054 -24163.523452  -1569.009450
PE15  -8035.553751  27657.277730   6819.063448    792.610399
PE18  14074.388488  -5446.321508  18270.322407  -1721.999628
PE19  14700.458937  -8486.862096 -24248.274870    376.342796
PE21  29175.400548   1111.166702  -4867.024495   -687.619725
PE24 -16126.753382 -13187.325671  21018.459031  -1115.051451
PE25 -29129.369256  -1280.337544   5111.452049   -546.478571
PE26  17950.929126  -1889.858488  23461.237592   1349.693938
PE27  17179.572021  12635.824310 -20518.029427   -119.288868
PE30  -6220.093426  16595.005568 -23705.031929   2623.915482
PE31   4832.644353 -16655.987590  24003.793278   -485.538020
PE33  18039.958833 -20108.718732  12102.368639   -465.028921
PE36 -17497.767571    945.727128 -23856.525850   -261.708715
PG01  13603.793775 -22412.620585  -3160.153663    569.133252
PG02 -18448.125577   8540.434524 -16481.863406   -632.036044
PG03  11925.274389 -12728.623564 -20103.882574   -287.643697
PG04   3649.894886 -20636.241965 -16274.949198   -204.308730
PG05 -23156.993176   6654.051104  11188.217401    -54.250942
PG06 -13800.265572  -5685.880673 -21914.688445     73.504154
PG07   1360.838789 -21302.383119  15854.857342    244.191941
PG08  11150.709753 -10926.630160  21433.933922    -36.292167
PG09  -6434.581846 -24795.271668  -7038.138681   -360.865783
PG10  19063.438272  11747.968055  14618.285695   -202.256623
PG12 -13351.068619  11635.933596 -20001.506707    -96.668295
PG13 -14869.804122   2468.497487  21732.388684    184.782348
PG14 -18674.928181 -12590.673897  14117.109684      2.482737
PG15 -10189.359352  12699.749082  20548.272721   -121.467370
PG16  25718.263445   -322.676866   7276.858597   -389.768563
PG17 -12861.397705 -22386.082403  -5780.573572    503.933033
PG18   -537.655315  20364.676333  16980.187319    322.909144
PG19 -15732.821759 -16041.405732 -14560.125980     52.289610
PG20 -26380.828732   1323.526535   -282.060799    519.163150
PG21  16971.291670 -19107.927279   6775.171630    142.448993
PG22  18781.654714 -11129.684156 -14813.761440   -514.472749
PG23   7529.453460  14842.280243  20691.588855     58.155134
PG24 -14801.162685  21664.267170   2044.960535    233.406133
PG25  -1677.133239  15279.066884 -21920.146156    207.445658
PG26  25733.683963   4952.783504  -5226.317335    133.633993
PG27  15923.063789    311.857231  21138.554403   -192.194586
PG28 -22583.784452 -10678.902482   9269.116446    502.077924
PG29   2510.218866  24668.134056  -9472.458880   -410.936807
PG30  -8724.943373 -13992.751508  20852.605444   -472.348233
PG31  15801.912489   3821.270738 -21173.076941   -139.494041
PG32  15964.083410  19378.919902  -8818.774434     -0.062189
PJ01 -25460.537681  22057.140384  30267.633402     54.762461
PJ02 -34787.841827  16911.426242 -12200.968548     -2.394389
PJ03 -20955.605075  29348.683996 -17202.081269     -1.962112
PJ07 -25408.557802  33642.408291     18.726368      0.033218
PR01  -3458.287324  11075.817620  22710.981189     85.249975
PR02  14240.577597  18056.658158  11142.437710    493.119017
PR03  21150.702737  12893.321103  -6171.550596     42.861894
PR04  15950.109834    744.986505 -19873.832111    104.514662
PR05   2024.979932 -11838.546162 -22494.333800     78.858636
PR06 -15350.887853 -17623.190186 -10205.423998     -3.402032
PR07 -21135.206225 -12442.610292   6954.876071    -41.229862
PR08 -15954.241631   -519.519424  19937.116124    -60.910608
PR09  -4573.105618 -10332.417061  22891.444875     12.967793
PR10 -18870.796072   -972.870489  17098.801481    -74.930764
PR11 -23655.078060   9532.169179    815.985164     48.424585
PR12 -13831.014778  13983.520544 -16199.556918    261.575322
PR13   3486.661386  10476.126886 -23002.034043    -60.559930
PR14  19708.057871    378.328842 -16160.101537     68.747505
PR15  23664.181365  -9516.908600    -99.818817    101.505798
PR16  12492.144822 -14455.492524  16956.810113    -21.324355
PR17   8981.844072   8490.823853  22310.312471    458.092223
PR18  10966.461623  -9767.426049  20855.996428     90.256720
PR19   8164.036256 -22358.886197   9187.780156   -159.160609
PR20   -696.256885 -23059.531767 -10845.504811    -55.799679
PR21  -9214.232446  -7222.728933 -22670.532441   -238.881417
PR22 -10933.559046  10839.189614 -20382.061709   -132.979687
PR23  -5185.740793  24820.528124  -2744.235584    -13.247893
PR24   1709.571246  22746.729781  11404.594819     58.435248
EOF
